{"type": "FeatureCollection", "features": [ {"type": "Feature", "properties": {"norad_id": 66633, "name": "STARLINK-35948", "group": "last-30-days", "lat": -12.451611450574026, "lon": 43.12757985595219, "alt_km": 351.9082568243384, "timestamp": "2025-12-07T07:31:35.087210+00:00", "meta": {"OBJECT_NAME": "STARLINK-35948", "OBJECT_ID": "2025-271S", "EPOCH": "2025-12-06T22:00:01.999584", "MEAN_MOTION": 15.74592985, "ECCENTRICITY": 0.00011607, "INCLINATION": 53.1573, "RA_OF_ASC_NODE": 215.5673, "ARG_OF_PERICENTER": 77.9228, "MEAN_ANOMALY": 27.2746, "EPHEMERIS_TYPE": 0, "CLASSIFICATION_TYPE": "U", "NORAD_CAT_ID": 66633, "ELEMENT_SET_NO": 999, "REV_AT_EPOCH": 330, "BSTAR": -0.010677839, "MEAN_MOTION_DOT": -0.01411074, "MEAN_MOTION_DDOT": 0}, "tle": {"line1": "1 66633U 25271S   25340.91668981 -.01411074  00000+0 -10678-1 0  9995", "line2": "2 66633  53.1573 215.5673 0001160  77.9228  27.2746 15.74592985  3301"}}, "geometry": {"type": "Point", "coordinates": [43.12757985595219, -12.451611450574026]}}, {"type": "Feature", "properties": {"norad_id": 66634, "name": "STARLINK-35967", "group": "last-30-days", "lat": -13.957627189384015, "lon": 44.33380813791874, "alt_km": 351.7818530144059, "timestamp": "2025-12-07T07:31:35.087220+00:00", "meta": {"OBJECT_NAME": "STARLINK-35967", "OBJECT_ID": "2025-271T", "EPOCH": "2025-12-06T22:00:01.999584", "MEAN_MOTION": 15.74570806, "ECCENTRICITY": 0.00011523, "INCLINATION": 53.1572, "RA_OF_ASC_NODE": 215.5631, "ARG_OF_PERICENTER": 103.8425, "MEAN_ANOMALY": 3.2766, "EPHEMERIS_TYPE": 0, "CLASSIFICATION_TYPE": "U", "NORAD_CAT_ID": 66634, "ELEMENT_SET_NO": 999, "REV_AT_EPOCH": 323, "BSTAR": -0.010419783, "MEAN_MOTION_DOT": -0.01379577, "MEAN_MOTION_DDOT": 0}, "tle": {"line1": "1 66634U 25271T   25340.91668981 -.01379577  00000+0 -10420-1 0  9992", "line2": "2 66634  53.1572 215.5631 0001152 103.8425   3.2766 15.74570806  3230"}}, "geometry": {"type": "Point", "coordinates": [44.33380813791874, -13.957627189384015]}}, {"type": "Feature", "properties": {"norad_id": 66635, "name": "STARLINK-35955", "group": "last-30-days", "lat": -15.460250320204313, "lon": 45.55823319017969, "alt_km": 352.0834900571954, "timestamp": "2025-12-07T07:31:35.087230+00:00", "meta": {"OBJECT_NAME": "STARLINK-35955", "OBJECT_ID": "2025-271U", "EPOCH": "2025-12-06T22:00:01.999584", "MEAN_MOTION": 15.74574771, "ECCENTRICITY": 0.000111, "INCLINATION": 53.1573, "RA_OF_ASC_NODE": 215.5591, "ARG_OF_PERICENTER": 91.1803, "MEAN_ANOMALY": 17.8525, "EPHEMERIS_TYPE": 0, "CLASSIFICATION_TYPE": "U", "NORAD_CAT_ID": 66635, "ELEMENT_SET_NO": 999, "REV_AT_EPOCH": 330, "BSTAR": -0.010441013, "MEAN_MOTION_DOT": -0.01382265, "MEAN_MOTION_DDOT": 0}, "tle": {"line1": "1 66635U 25271U   25340.91668981 -.01382265  00000+0 -10441-1 0  9994", "line2": "2 66635  53.1573 215.5591 0001110  91.1803  17.8525 15.74574771  3307"}}, "geometry": {"type": "Point", "coordinates": [45.55823319017969, -15.460250320204313]}}, {"type": "Feature", "properties": {"norad_id": 66636, "name": "STARLINK-35968", "group": "last-30-days", "lat": -16.95409011073875, "lon": 46.79876894197591, "alt_km": 352.44236553007795, "timestamp": "2025-12-07T07:31:35.087240+00:00", "meta": {"OBJECT_NAME": "STARLINK-35968", "OBJECT_ID": "2025-271V", "EPOCH": "2025-12-06T22:00:01.999584", "MEAN_MOTION": 15.74571883, "ECCENTRICITY": 9.877e-05, "INCLINATION": 53.1574, "RA_OF_ASC_NODE": 215.5549, "ARG_OF_PERICENTER": 83.4402, "MEAN_ANOMALY": 27.5164, "EPHEMERIS_TYPE": 0, "CLASSIFICATION_TYPE": "U", "NORAD_CAT_ID": 66636, "ELEMENT_SET_NO": 999, "REV_AT_EPOCH": 330, "BSTAR": -0.010474213, "MEAN_MOTION_DOT": -0.01385946, "MEAN_MOTION_DDOT": 0}, "tle": {"line1": "1 66636U 25271V   25340.91668981 -.01385946  00000+0 -10474-1 0  9990", "line2": "2 66636  53.1574 215.5549 0000987  83.4402  27.5164 15.74571883  3300"}}, "geometry": {"type": "Point", "coordinates": [46.79876894197591, -16.95409011073875]}}, {"type": "Feature", "properties": {"norad_id": 66637, "name": "STARLINK-35953", "group": "last-30-days", "lat": -18.443781151682277, "lon": 48.062849044289926, "alt_km": 352.3007271036122, "timestamp": "2025-12-07T07:31:35.087250+00:00", "meta": {"OBJECT_NAME": "STARLINK-35953", "OBJECT_ID": "2025-271W", "EPOCH": "2025-12-06T22:00:01.999584", "MEAN_MOTION": 15.74568447, "ECCENTRICITY": 0.00010116, "INCLINATION": 53.1572, "RA_OF_ASC_NODE": 215.5512, "ARG_OF_PERICENTER": 101.2142, "MEAN_ANOMALY": 11.6585, "EPHEMERIS_TYPE": 0, "CLASSIFICATION_TYPE": "U", "NORAD_CAT_ID": 66637, "ELEMENT_SET_NO": 999, "REV_AT_EPOCH": 330, "BSTAR": -0.010408093, "MEAN_MOTION_DOT": -0.01377998, "MEAN_MOTION_DDOT": 0}, "tle": {"line1": "1 66637U 25271W   25340.91668981 -.01377998  00000+0 -10408-1 0  9996", "line2": "2 66637  53.1572 215.5512 0001011 101.2142  11.6585 15.74568447  3301"}}, "geometry": {"type": "Point", "coordinates": [48.062849044289926, -18.443781151682277]}}, {"type": "Feature", "properties": {"norad_id": 66638, "name": "STARLINK-35972", "group": "last-30-days", "lat": -19.913320402728996, "lon": 49.33856282314642, "alt_km": 352.5868387485252, "timestamp": "2025-12-07T07:31:35.087262+00:00", "meta": {"OBJECT_NAME": "STARLINK-35972", "OBJECT_ID": "2025-271X", "EPOCH": "2025-12-06T22:00:01.999584", "MEAN_MOTION": 15.74583953, "ECCENTRICITY": 5.234e-05, "INCLINATION": 53.1573, "RA_OF_ASC_NODE": 215.5474, "ARG_OF_PERICENTER": 78.1681, "MEAN_ANOMALY": 36.6024, "EPHEMERIS_TYPE": 0, "CLASSIFICATION_TYPE": "U", "NORAD_CAT_ID": 66638, "ELEMENT_SET_NO": 999, "REV_AT_EPOCH": 330, "BSTAR": -0.01050326, "MEAN_MOTION_DOT": -0.0138977, "MEAN_MOTION_DDOT": 0}, "tle": {"line1": "1 66638U 25271X   25340.91668981 -.01389770  00000+0 -10503-1 0  9994", "line2": "2 66638  53.1573 215.5474 0000523  78.1681  36.6024 15.74583953  3301"}}, "geometry": {"type": "Point", "coordinates": [49.33856282314642, -19.913320402728996]}}, {"type": "Feature", "properties": {"norad_id": 66639, "name": "STARLINK-35908", "group": "last-30-days", "lat": -21.391948316760764, "lon": 50.654193665993986, "alt_km": 352.84162098089837, "timestamp": "2025-12-07T07:31:35.087272+00:00", "meta": {"OBJECT_NAME": "STARLINK-35908", "OBJECT_ID": "2025-271Y", "EPOCH": "2025-12-06T22:00:01.999584", "MEAN_MOTION": 15.74562016, "ECCENTRICITY": 0.00013033, "INCLINATION": 53.1574, "RA_OF_ASC_NODE": 215.5429, "ARG_OF_PERICENTER": 82.9685, "MEAN_ANOMALY": 33.73, "EPHEMERIS_TYPE": 0, "CLASSIFICATION_TYPE": "U", "NORAD_CAT_ID": 66639, "ELEMENT_SET_NO": 999, "REV_AT_EPOCH": 330, "BSTAR": -0.010241362, "MEAN_MOTION_DOT": -0.01358153, "MEAN_MOTION_DDOT": 0}, "tle": {"line1": "1 66639U 25271Y   25340.91668981 -.01358153  00000+0 -10241-1 0  9995", "line2": "2 66639  53.1574 215.5429 0001303  82.9685  33.7300 15.74562016  3309"}}, "geometry": {"type": "Point", "coordinates": [50.654193665993986, -21.391948316760764]}}, {"type": "Feature", "properties": {"norad_id": 66640, "name": "STARLINK-35921", "group": "last-30-days", "lat": -22.846530735081544, "lon": 51.985149888652295, "alt_km": 352.992575845944, "timestamp": "2025-12-07T07:31:35.087282+00:00", "meta": {"OBJECT_NAME": "STARLINK-35921", "OBJECT_ID": "2025-271Z", "EPOCH": "2025-12-06T22:00:01.999584", "MEAN_MOTION": 15.74579973, "ECCENTRICITY": 9.517e-05, "INCLINATION": 53.1574, "RA_OF_ASC_NODE": 215.5394, "ARG_OF_PERICENTER": 82.4822, "MEAN_ANOMALY": 36.124, "EPHEMERIS_TYPE": 0, "CLASSIFICATION_TYPE": "U", "NORAD_CAT_ID": 66640, "ELEMENT_SET_NO": 999, "REV_AT_EPOCH": 330, "BSTAR": -0.010453018, "MEAN_MOTION_DOT": -0.01383872, "MEAN_MOTION_DDOT": 0}, "tle": {"line1": "1 66640U 25271Z   25340.91668981 -.01383872  00000+0 -10453-1 0  9998", "line2": "2 66640  53.1574 215.5394 0000951  82.4822  36.1240 15.74579973  3308"}}, "geometry": {"type": "Point", "coordinates": [51.985149888652295, -22.846530735081544]}}, {"type": "Feature", "properties": {"norad_id": 66641, "name": "STARLINK-35923", "group": "last-30-days", "lat": -28.56093827546535, "lon": 57.64090457969649, "alt_km": 353.34622018197933, "timestamp": "2025-12-07T07:31:35.087294+00:00", "meta": {"OBJECT_NAME": "STARLINK-35923", "OBJECT_ID": "2025-271AA", "EPOCH": "2025-12-06T22:00:01.999584", "MEAN_MOTION": 15.74587604, "ECCENTRICITY": 9.287e-05, "INCLINATION": 53.1573, "RA_OF_ASC_NODE": 215.5223, "ARG_OF_PERICENTER": 96.0205, "MEAN_ANOMALY": 30.2503, "EPHEMERIS_TYPE": 0, "CLASSIFICATION_TYPE": "U", "NORAD_CAT_ID": 66641, "ELEMENT_SET_NO": 999, "REV_AT_EPOCH": 330, "BSTAR": -0.01050952, "MEAN_MOTION_DOT": -0.01390913, "MEAN_MOTION_DDOT": 0}, "tle": {"line1": "1 66641U 25271AA  25340.91668981 -.01390913  00000+0 -10510-1 0  9997", "line2": "2 66641  53.1573 215.5223 0000928  96.0205  30.2503 15.74587604  3306"}}, "geometry": {"type": "Point", "coordinates": [57.64090457969649, -28.56093827546535]}}, {"type": "Feature", "properties": {"norad_id": 66642, "name": "STARLINK-35926", "group": "last-30-days", "lat": -27.14984589746832, "lon": 56.17107131781868, "alt_km": 353.34914197420494, "timestamp": "2025-12-07T07:31:35.087304+00:00", "meta": {"OBJECT_NAME": "STARLINK-35926", "OBJECT_ID": "2025-271AB", "EPOCH": "2025-12-06T22:00:01.999584", "MEAN_MOTION": 15.74594102, "ECCENTRICITY": 8.932e-05, "INCLINATION": 53.1576, "RA_OF_ASC_NODE": 215.5272, "ARG_OF_PERICENTER": 79.3943, "MEAN_ANOMALY": 44.9503, "EPHEMERIS_TYPE": 0, "CLASSIFICATION_TYPE": "U", "NORAD_CAT_ID": 66642, "ELEMENT_SET_NO": 999, "REV_AT_EPOCH": 307, "BSTAR": -0.010552019, "MEAN_MOTION_DOT": -0.01396237, "MEAN_MOTION_DDOT": 0}, "tle": {"line1": "1 66642U 25271AB  25340.91668981 -.01396237  00000+0 -10552-1 0  9999", "line2": "2 66642  53.1576 215.5272 0000893  79.3943  44.9503 15.74594102  3075"}}, "geometry": {"type": "Point", "coordinates": [56.17107131781868, -27.14984589746832]}}]}